BEIDOU-2 IGSO-5         
1 37948U 11073A   26183.72937883 -.00000128  00000+0  00000+0 0  9990
2 37948  47.6496 271.3544 0114527 222.0502 141.5350  1.00270596 53296
LUCH-5A                 
1 37951U 11074B   26200.45322619 -.00000058  00000+0  00000+0 0  9992
2 37951   8.8339  73.3316 0002773  60.4689 133.6161  1.00274030 53379
BEIDOU-2 G5             
1 38091U 12008A   26200.15600623  .00000050  00000+0  00000+0 0  9998
2 38091   3.6519  69.4978 0007297 269.3147  72.9475  1.00271510 52689
BEIDOU-2 M3             
1 38250U 12018A   26198.79533443 -.00000087  00000+0  00000+0 0  9998
2 38250  55.7296 303.8435 0021044 272.1726  87.6188  1.86229645 96510
BEIDOU-2 M4             
1 38251U 12018B   26199.26464312 -.00000089  00000+0  00000+0 0  9992
2 38251  55.6290 303.0389 0012176 272.1376  87.7565  1.86229286 96523
SES-5                   
1 38652U 12036A   26200.54993419  .00000030  00000+0  00000+0 0  9991
2 38652   0.0450 318.5993 0001790 165.8690  15.8169  1.00276813 44786
BEIDOU-2 M6             
1 38775U 12050B   26198.97421240 -.00000062  00000+0  00000+0 0  9990
2 38775  56.5713  61.8766 0012811   1.9822 358.0915  1.86230950 93881
GSAT-10                 
1 38779U 12051B   26200.61558303 -.00000169  00000+0  00000+0 0  9999
2 38779   0.0791 264.1497 0007551 191.1980 146.6678  1.00272769 50426
NAVSTAR 67 (USA 239)    
1 38833U 12053A   26199.72585298  .00000025  00000+0  00000+0 0  9994
2 38833  53.5900 142.3072 0182254  66.2846 295.5909  2.00568018100079
GSAT0103 (GALILEO-FM3)  
1 38857U 12055A   26200.15144010 -.00000035  00000+0  00000+0 0  9997
2 38857  55.8248 100.6680 0003622 312.6356  47.3724  1.70473478 85556
BEIDOU-2 G6             
1 38953U 12059A   26200.56573444 -.00000182  00000+0  00000+0 0  9993
2 38953   4.5018  73.1739 0008876 327.6755 184.1795  1.00273181 50230
LUCH-5B                 
1 38977U 12061A   26200.33196903 -.00000147  00000+0  00000+0 0  9999
2 38977  10.5518  49.5606 0003806 146.8314 203.9406  1.00270298 49927
COSMOS 2485 [GLONASS-M] 
1 39155U 13019A   26198.41189181 -.00000024  00000+0  00000+0 0  9991
2 39155  65.4363  72.5906 0022584 230.9016 128.9717  2.13103096102927
NAVSTAR 68 (USA 242)    
1 39166U 13023A   26200.09224197 -.00000038  00000+0  00000+0 0  9998
2 39166  54.4799 267.6724 0141388  51.1107 310.2117  2.00563376 96528
IRNSS-1A                
1 39199U 13034A   26191.72043649  .00000047  00000+0  00000+0 0  9995
2 39199  35.7704  63.5328 0017567 183.4462 356.2994  1.00281941 47601
NAVSTAR 69 (USA 248)    
1 39533U 14008A   26199.09693287  .00000029  00000+0  00000+0 0  9996
2 39533  53.6580 148.0590 0084062 231.5632 127.6506  2.00561763 90300
ASTRA 5B                
1 39617U 14011B   26200.55366087  .00000132  00000+0  00000+0 0  9997
2 39617   0.0675 307.5085 0002062 178.0814  34.5114  1.00270593 44994
COSMOS 2492 [GLONASS-M] 
1 39620U 14012A   26200.24778130 -.00000077  00000+0  00000+0 0  9993
2 39620  65.2767 312.8464 0010279 317.3075  42.6335  2.13103146 95927
IRNSS-1B                
1 39635U 14017A   26199.70438067  .00000121  00000+0  00000+0 0  9993
2 39635  28.8702 239.8599 0022198 192.0035 173.4078  1.00276854 45116
LUCH-5V                 
1 39727U 14023A   26200.59293093 -.00000275  00000+0  00000+0 0  9991
2 39727   5.2113  69.4083 0002112  81.9232  94.2414  1.00272243 44680
NAVSTAR 70 (USA 251)    
1 39741U 14026A   26199.87168195 -.00000103  00000+0  00000+0 0  9992
2 39741  56.4811 330.2843 0038161 325.6855  34.0716  2.00558684 89171
COSMOS 2500 [GLONASS-M] 
1 40001U 14032A   26199.94787780 -.00000075  00000+0  00000+0 0  9993
2 40001  65.2120 312.6009 0008440 191.3225 168.6798  2.13105774 94135
NAVSTAR 71 (USA 256)    
1 40105U 14045A   26198.46758160 -.00000030  00000+0  00000+0 0  9999
2 40105  55.3728  87.2585 0034528 118.4118 241.9927  2.00560402 86684
GSAT0201 (GALILEO 5)    
1 40128U 14050A   26199.67806368 -.00000061  00000+0  00000+0 0  9992
2 40128  48.8408 272.1432 1678964 180.6285 179.1839  1.85519739 78901
GSAT0202 (GALILEO 6)    
1 40129U 14050B   26198.85553230 -.00000054  00000+0  00000+0 0  9991
2 40129  48.8588 271.2629 1680174 181.3093 178.2437  1.85520332 81055
IRNSS-1C                
1 40269U 14061A   26199.71006955 -.00000172  00000+0  00000+0 0  9992
2 40269   6.5950  88.3313 0021992   5.8558 180.9989  1.00271766 43009
NAVSTAR 72 (USA 258)    
1 40294U 14068A   26200.33035813 -.00000087  00000+0  00000+0 0  9998
2 40294  57.0098  29.7176 0067446  72.4070 288.3651  2.00553506 85854
COSMOS 2501 [GLONASS-K] 
1 40315U 14075A   26199.27175601  .00000062  00000+0  00000+0 0  9992
2 40315  63.6183 189.2960 0022680 212.6285 147.2256  2.13101246 90513
NAVSTAR 73 (USA 260)    
1 40534U 15013A   26200.47148930  .00000058  00000+0  00000+0 0  9993
2 40534  52.9980 202.7580 0111066  41.5591 319.2884  2.00573585 82476
GSAT0203 (GALILEO 7)    
1 40544U 15017A   26198.12850752 -.00000104  00000+0  00000+0 0  9991
2 40544  56.7761 340.7804 0002702 254.9804 104.9775  1.70476213 69717
GSAT0204 (GALILEO 8)    
1 40545U 15017B   26198.97096918 -.00000105  00000+0  00000+0 0  9992
2 40545  56.7834 340.7762 0002879 234.5302 125.4325  1.70475755 32779
